DELTA 1 R/B             
1 20323U 89089B   25320.56505286  .00000729  00000+0  18888-3 0  9996
2 20323  97.0775 180.9483 0070562 119.3931 241.4336 14.50541923879334
ARIANE 40 R/B           
1 20443U 90005H   25320.60901118  .00000674  00000+0  22843-3 0  9993
2 20443  98.3281  19.5211 0010220 178.5301 181.5920 14.39770554876535
DELTA 2 R/B(1)          
1 20453U 90008B   25320.69135372  .00046412  00000+0  79089-3 0  9991
2 20453  35.6068 188.4241 0117193 300.7444  58.1790 15.42870984908607
COSMOS 2058             
1 20465U 90010A   25320.78651235  .00005262  00000+0  32031-3 0  9992
2 20465  82.4643 158.5639 0010695  11.6327 348.5148 15.10176590925198
SL-14 R/B               
1 20466U 90010B   25320.57411353  .00000832  00000+0  98283-4 0  9995
2 20466  82.5044  13.6196 0018712 315.8756  44.0965 14.83438025911718
SL-14 R/B               
1 20511U 90018B   25320.48318664  .00000811  00000+0  99051-4 0  9996
2 20511  82.5203 328.9092 0017919 103.5905 256.7306 14.82010188905819
HST                     
1 20580U 90037B   25320.66307832  .00010146  00000+0  35759-3 0  9994
2 20580  28.4680  89.9077 0001409 316.9081  43.1403 15.27554036756008
SL-16 R/B               
1 20625U 90046B   25320.58960994 -.00000078  00000+0 -15692-4 0  9999
2 20625  70.9962 175.4392 0012312 121.3010 238.9320 14.14990159832393
COSMOS 2084             
1 20663U 90055A   25320.45410328  .00004330  00000+0  31516-3 0  9993
2 20663  62.7922   1.5427 0035955 171.5893 188.5818 15.04800577919271
SL-6 R/B(2)             
1 20666U 90055D   25320.22097709  .00004176  00000+0  32370-3 0  9992
2 20666  62.7834 279.5082 0010894 286.1309  73.8591 15.02897072921136
SL-8 R/B                
1 20775U 90078B   25320.52309701  .00022275  00000+0  68779-3 0  9991
2 20775  82.9070 352.7467 0379998  33.7130 328.7634 14.84462660792489
SL-8 R/B                
1 21088U 91006B   25320.81270512  .00000158  00000+0  14377-3 0  9991
2 21088  82.9419 253.9974 0022489 355.1407  32.7241 13.77485451748534
