CCSDS_OMM_VERS = 2.0
CREATION_DATE  = 
ORIGINATOR     = 

OBJECT_NAME    = DELTA 1 R/B
OBJECT_ID      = 1989-089B
CENTER_NAME    = EARTH
REF_FRAME      = TEME
TIME_SYSTEM    = UTC
MEAN_ELEMENT_THEORY = SGP/SGP4

EPOCH          = 2025-11-16T13:33:40.567104
MEAN_MOTION    = 14.50541923
ECCENTRICITY   = .0070562
INCLINATION    = 97.0775
RA_OF_ASC_NODE = 180.9483
ARG_OF_PERICENTER = 119.3931
MEAN_ANOMALY   = 241.4336

EPHEMERIS_TYPE = 0
CLASSIFICATION_TYPE = U
NORAD_CAT_ID   = 20323
ELEMENT_SET_NO = 999
REV_AT_EPOCH   = 87933
BSTAR          = .18888308E-3
MEAN_MOTION_DOT = .729E-5
MEAN_MOTION_DDOT = 0

CCSDS_OMM_VERS = 2.0
CREATION_DATE  = 
ORIGINATOR     = 

OBJECT_NAME    = ARIANE 40 R/B
OBJECT_ID      = 1990-005H
CENTER_NAME    = EARTH
REF_FRAME      = TEME
TIME_SYSTEM    = UTC
MEAN_ELEMENT_THEORY = SGP/SGP4

EPOCH          = 2025-11-16T14:36:58.565952
MEAN_MOTION    = 14.39770554
ECCENTRICITY   = .00102204
INCLINATION    = 98.3281
RA_OF_ASC_NODE = 19.5211
ARG_OF_PERICENTER = 178.5301
MEAN_ANOMALY   = 181.5920

EPHEMERIS_TYPE = 0
CLASSIFICATION_TYPE = U
NORAD_CAT_ID   = 20443
ELEMENT_SET_NO = 999
REV_AT_EPOCH   = 87653
BSTAR          = .22842576E-3
MEAN_MOTION_DOT = .674E-5
MEAN_MOTION_DDOT = 0

CCSDS_OMM_VERS = 2.0
CREATION_DATE  = 
ORIGINATOR     = 

OBJECT_NAME    = DELTA 2 R/B(1)
OBJECT_ID      = 1990-008B
CENTER_NAME    = EARTH
REF_FRAME      = TEME
TIME_SYSTEM    = UTC
MEAN_ELEMENT_THEORY = SGP/SGP4

EPOCH          = 2025-11-16T16:35:32.961408
MEAN_MOTION    = 15.42870984
ECCENTRICITY   = .0117193
INCLINATION    = 35.6068
RA_OF_ASC_NODE = 188.4241
ARG_OF_PERICENTER = 300.7444
MEAN_ANOMALY   = 58.1790

EPHEMERIS_TYPE = 0
CLASSIFICATION_TYPE = U
NORAD_CAT_ID   = 20453
ELEMENT_SET_NO = 999
REV_AT_EPOCH   = 90860
BSTAR          = .79089E-3
MEAN_MOTION_DOT = .46412E-3
MEAN_MOTION_DDOT = 0

CCSDS_OMM_VERS = 2.0
CREATION_DATE  = 
ORIGINATOR     = 

OBJECT_NAME    = COSMOS 2058
OBJECT_ID      = 1990-010A
CENTER_NAME    = EARTH
REF_FRAME      = TEME
TIME_SYSTEM    = UTC
MEAN_ELEMENT_THEORY = SGP/SGP4

EPOCH          = 2025-11-16T18:52:34.667040
MEAN_MOTION    = 15.10176590
ECCENTRICITY   = .0010695
INCLINATION    = 82.4643
RA_OF_ASC_NODE = 158.5639
ARG_OF_PERICENTER = 11.6327
MEAN_ANOMALY   = 348.5148

EPHEMERIS_TYPE = 0
CLASSIFICATION_TYPE = U
NORAD_CAT_ID   = 20465
ELEMENT_SET_NO = 999
REV_AT_EPOCH   = 92519
BSTAR          = .32031E-3
MEAN_MOTION_DOT = .5262E-4
MEAN_MOTION_DDOT = 0

CCSDS_OMM_VERS = 2.0
CREATION_DATE  = 
ORIGINATOR     = 

OBJECT_NAME    = SL-14 R/B
OBJECT_ID      = 1990-010B
CENTER_NAME    = EARTH
REF_FRAME      = TEME
TIME_SYSTEM    = UTC
MEAN_ELEMENT_THEORY = SGP/SGP4

EPOCH          = 2025-11-16T13:46:43.408992
MEAN_MOTION    = 14.83438025
ECCENTRICITY   = .00187128
INCLINATION    = 82.5044
RA_OF_ASC_NODE = 13.6196
ARG_OF_PERICENTER = 315.8756
MEAN_ANOMALY   = 44.0965

EPHEMERIS_TYPE = 0
CLASSIFICATION_TYPE = U
NORAD_CAT_ID   = 20466
ELEMENT_SET_NO = 999
REV_AT_EPOCH   = 91171
BSTAR          = .98282937E-4
MEAN_MOTION_DOT = .832E-5
MEAN_MOTION_DDOT = 0

CCSDS_OMM_VERS = 2.0
CREATION_DATE  = 
ORIGINATOR     = 

OBJECT_NAME    = SL-14 R/B
OBJECT_ID      = 1990-018B
CENTER_NAME    = EARTH
REF_FRAME      = TEME
TIME_SYSTEM    = UTC
MEAN_ELEMENT_THEORY = SGP/SGP4

EPOCH          = 2025-11-16T11:35:47.325696
MEAN_MOTION    = 14.82010188
ECCENTRICITY   = .00179192
INCLINATION    = 82.5203
RA_OF_ASC_NODE = 328.9092
ARG_OF_PERICENTER = 103.5905
MEAN_ANOMALY   = 256.7306

EPHEMERIS_TYPE = 0
CLASSIFICATION_TYPE = U
NORAD_CAT_ID   = 20511
ELEMENT_SET_NO = 999
REV_AT_EPOCH   = 90581
BSTAR          = .99051023E-4
MEAN_MOTION_DOT = .811E-5
MEAN_MOTION_DDOT = 0

CCSDS_OMM_VERS = 2.0
CREATION_DATE  = 
ORIGINATOR     = 

OBJECT_NAME    = HST
OBJECT_ID      = 1990-037B
CENTER_NAME    = EARTH
REF_FRAME      = TEME
TIME_SYSTEM    = UTC
MEAN_ELEMENT_THEORY = SGP/SGP4

EPOCH          = 2025-11-16T15:54:49.966848
MEAN_MOTION    = 15.27554036
ECCENTRICITY   = .0001409
INCLINATION    = 28.4680
RA_OF_ASC_NODE = 89.9077
ARG_OF_PERICENTER = 316.9081
MEAN_ANOMALY   = 43.1403

EPHEMERIS_TYPE = 0
CLASSIFICATION_TYPE = U
NORAD_CAT_ID   = 20580
ELEMENT_SET_NO = 999
REV_AT_EPOCH   = 75600
BSTAR          = .35759E-3
MEAN_MOTION_DOT = .10146E-3
MEAN_MOTION_DDOT = 0

CCSDS_OMM_VERS = 2.0
CREATION_DATE  = 
ORIGINATOR     = 

OBJECT_NAME    = SL-16 R/B
OBJECT_ID      = 1990-046B
CENTER_NAME    = EARTH
REF_FRAME      = TEME
TIME_SYSTEM    = UTC
MEAN_ELEMENT_THEORY = SGP/SGP4

EPOCH          = 2025-11-16T14:09:02.298816
MEAN_MOTION    = 14.14990159
ECCENTRICITY   = .00123124
INCLINATION    = 70.9962
RA_OF_ASC_NODE = 175.4392
ARG_OF_PERICENTER = 121.3010
MEAN_ANOMALY   = 238.9320

EPHEMERIS_TYPE = 0
CLASSIFICATION_TYPE = U
NORAD_CAT_ID   = 20625
ELEMENT_SET_NO = 999
REV_AT_EPOCH   = 83239
BSTAR          = -.15691587E-4
MEAN_MOTION_DOT = -.78E-6
MEAN_MOTION_DDOT = 0

CCSDS_OMM_VERS = 2.0
CREATION_DATE  = 
ORIGINATOR     = 

OBJECT_NAME    = COSMOS 2084
OBJECT_ID      = 1990-055A
CENTER_NAME    = EARTH
REF_FRAME      = TEME
TIME_SYSTEM    = UTC
MEAN_ELEMENT_THEORY = SGP/SGP4

EPOCH          = 2025-11-16T10:53:54.523392
MEAN_MOTION    = 15.04800577
ECCENTRICITY   = .00359556
INCLINATION    = 62.7922
RA_OF_ASC_NODE = 1.5427
ARG_OF_PERICENTER = 171.5893
MEAN_ANOMALY   = 188.5818

EPHEMERIS_TYPE = 0
CLASSIFICATION_TYPE = U
NORAD_CAT_ID   = 20663
ELEMENT_SET_NO = 999
REV_AT_EPOCH   = 91927
BSTAR          = .31516019E-3
MEAN_MOTION_DOT = .433E-4
MEAN_MOTION_DDOT = 0

CCSDS_OMM_VERS = 2.0
CREATION_DATE  = 
ORIGINATOR     = 

OBJECT_NAME    = SL-6 R/B(2)
OBJECT_ID      = 1990-055D
CENTER_NAME    = EARTH
REF_FRAME      = TEME
TIME_SYSTEM    = UTC
MEAN_ELEMENT_THEORY = SGP/SGP4

EPOCH          = 2025-11-16T05:18:12.420576
MEAN_MOTION    = 15.02897072
ECCENTRICITY   = .00108941
INCLINATION    = 62.7834
RA_OF_ASC_NODE = 279.5082
ARG_OF_PERICENTER = 286.1309
MEAN_ANOMALY   = 73.8591

EPHEMERIS_TYPE = 0
CLASSIFICATION_TYPE = U
NORAD_CAT_ID   = 20666
ELEMENT_SET_NO = 999
REV_AT_EPOCH   = 92113
BSTAR          = .32369775E-3
MEAN_MOTION_DOT = .4176E-4
MEAN_MOTION_DDOT = 0

CCSDS_OMM_VERS = 2.0
CREATION_DATE  = 
ORIGINATOR     = 

OBJECT_NAME    = SL-8 R/B
OBJECT_ID      = 1990-078B
CENTER_NAME    = EARTH
REF_FRAME      = TEME
TIME_SYSTEM    = UTC
MEAN_ELEMENT_THEORY = SGP/SGP4

EPOCH          = 2025-11-16T12:33:15.581664
MEAN_MOTION    = 14.84462660
ECCENTRICITY   = .03799988
INCLINATION    = 82.9070
RA_OF_ASC_NODE = 352.7467
ARG_OF_PERICENTER = 33.7130
MEAN_ANOMALY   = 328.7634

EPHEMERIS_TYPE = 0
CLASSIFICATION_TYPE = U
NORAD_CAT_ID   = 20775
ELEMENT_SET_NO = 999
REV_AT_EPOCH   = 79248
BSTAR          = .68778883E-3
MEAN_MOTION_DOT = .22275E-3
MEAN_MOTION_DDOT = 0

CCSDS_OMM_VERS = 2.0
CREATION_DATE  = 
ORIGINATOR     = 

OBJECT_NAME    = SL-8 R/B
OBJECT_ID      = 1991-006B
CENTER_NAME    = EARTH
REF_FRAME      = TEME
TIME_SYSTEM    = UTC
MEAN_ELEMENT_THEORY = SGP/SGP4

EPOCH          = 2025-11-16T19:30:17.722368
MEAN_MOTION    = 13.77485451
ECCENTRICITY   = .0022489
INCLINATION    = 82.9419
RA_OF_ASC_NODE = 253.9974
ARG_OF_PERICENTER = 355.1407
MEAN_ANOMALY   = 32.7241

EPHEMERIS_TYPE = 0
CLASSIFICATION_TYPE = U
NORAD_CAT_ID   = 21088
ELEMENT_SET_NO = 999
REV_AT_EPOCH   = 74853
BSTAR          = .14377E-3
MEAN_MOTION_DOT = .158E-5
MEAN_MOTION_DDOT = 0

